STARLINK-31366          
1 59403U 24064F   26068.02308473 -.00003679  00000+0 -12422-3 0  9996
2 59403  42.9984  59.9515 0000169  94.4170 265.6700 15.27585402109122
COSMOS 2576             
1 59773U 24092A   26068.82603826  .00015211  00000+0  56283-3 0  9991
2 59773  97.4253 186.0053 0005946 159.7731 200.3745 15.27760963101271
